STARLINK-36404          
1 67664U 26022S   26047.16667824 -.01905894  00000+0 -13557-1 0  9999
2 67664  97.2812  80.1136 0001193  77.2617 257.3518 15.76982685  3408
STARLINK-36399          
1 67665U 26022T   26047.16667824 -.01810072  00000+0 -12866-1 0  9995
2 67665  97.2811  80.1163 0001288  80.8955 257.8931 15.76828197  3409
STARLINK-36365          
1 67666U 26022U   26047.16667824 -.01912030  00000+0 -13564-1 0  9999
2 67666  97.2806  80.1196 0001354  78.4537 268.0573 15.77052967  3437
STARLINK-36622          
1 67667U 26022V   26047.16667824 -.01884145  00000+0 -13049-1 0  9993
2 67667  97.2833  80.1239 0001236  76.4545 279.1591 15.77541948  3437
STARLINK-36625          
1 67668U 26022W   26047.16667824 -.01896633  00000+0 -13184-1 0  9999
2 67668  97.2833  80.1266 0001439  62.3587 301.3850 15.77477888  3430
STARLINK-36639          
1 67669U 26022X   26047.16667824 -.01968380  00000+0 -13490-1 0  9999
2 67669  97.2794  80.1297 0001470  68.2007 304.6643 15.77921703  3434
STARLINK-36596          
1 67670U 26022Y   26047.16667824 -.01965792  00000+0 -13058-1 0  9995
2 67670  97.2812  80.1329 0001320  63.1210 317.9510 15.78609524  3432
STARLINK-36297          
1 67671U 26022Z   26047.16667824 -.01963997  00000+0 -12945-1 0  9995
2 67671  97.2815  80.1376 0001501  78.5043 314.0697 15.78776810  3430
STARLINK-36616          
1 67672U 26022AA  26047.16667824 -.01969657  00000+0 -13327-1 0  9990
2 67672  97.2788  80.1353 0001357  67.3268 318.8453 15.78208598  3434
COSMOS 2600             
1 67674U 26023A   26047.15885087  .00072449  00000+0  34781-3 0  9995
2 67674  96.6485 123.4746 0001609  58.2792 301.8635 15.82499993  1642
2026-023B               
1 67675U 26023B   26046.63974297  .00013628  00000+0  58896-3 0  9997
2 67675  96.6405 122.1448 0017664 209.2041 150.8211 15.22427648  1502
2026-023C               
1 67676U 26023C   26047.16517105  .00012843  00000+0  55350-3 0  9998
2 67676  96.6440 122.6231 0018943 196.9299 163.1310 15.22511106  1741
