CCSDS_OMM_VERS = 2.0
CREATION_DATE  = 
ORIGINATOR     = 

OBJECT_NAME    = STARLINK-36404
OBJECT_ID      = 2026-022S
CENTER_NAME    = EARTH
REF_FRAME      = TEME
TIME_SYSTEM    = UTC
MEAN_ELEMENT_THEORY = SGP/SGP4

EPOCH          = 2026-02-16T04:00:00.999936
MEAN_MOTION    = 15.76982685
ECCENTRICITY   = .0001193
INCLINATION    = 97.2812
RA_OF_ASC_NODE = 80.1136
ARG_OF_PERICENTER = 77.2617
MEAN_ANOMALY   = 257.3518

EPHEMERIS_TYPE = 0
CLASSIFICATION_TYPE = U
NORAD_CAT_ID   = 67664
ELEMENT_SET_NO = 999
REV_AT_EPOCH   = 340
BSTAR          = -.13557E-1
MEAN_MOTION_DOT = -.1905894E-1
MEAN_MOTION_DDOT = 0

CCSDS_OMM_VERS = 2.0
CREATION_DATE  = 
ORIGINATOR     = 

OBJECT_NAME    = STARLINK-36399
OBJECT_ID      = 2026-022T
CENTER_NAME    = EARTH
REF_FRAME      = TEME
TIME_SYSTEM    = UTC
MEAN_ELEMENT_THEORY = SGP/SGP4

EPOCH          = 2026-02-16T04:00:00.999936
MEAN_MOTION    = 15.76828197
ECCENTRICITY   = .0001288
INCLINATION    = 97.2811
RA_OF_ASC_NODE = 80.1163
ARG_OF_PERICENTER = 80.8955
MEAN_ANOMALY   = 257.8931

EPHEMERIS_TYPE = 0
CLASSIFICATION_TYPE = U
NORAD_CAT_ID   = 67665
ELEMENT_SET_NO = 999
REV_AT_EPOCH   = 340
BSTAR          = -.12866E-1
MEAN_MOTION_DOT = -.1810072E-1
MEAN_MOTION_DDOT = 0

CCSDS_OMM_VERS = 2.0
CREATION_DATE  = 
ORIGINATOR     = 

OBJECT_NAME    = STARLINK-36365
OBJECT_ID      = 2026-022U
CENTER_NAME    = EARTH
REF_FRAME      = TEME
TIME_SYSTEM    = UTC
MEAN_ELEMENT_THEORY = SGP/SGP4

EPOCH          = 2026-02-16T04:00:00.999936
MEAN_MOTION    = 15.77052967
ECCENTRICITY   = .0001354
INCLINATION    = 97.2806
RA_OF_ASC_NODE = 80.1196
ARG_OF_PERICENTER = 78.4537
MEAN_ANOMALY   = 268.0573

EPHEMERIS_TYPE = 0
CLASSIFICATION_TYPE = U
NORAD_CAT_ID   = 67666
ELEMENT_SET_NO = 999
REV_AT_EPOCH   = 343
BSTAR          = -.13564E-1
MEAN_MOTION_DOT = -.191203E-1
MEAN_MOTION_DDOT = 0

CCSDS_OMM_VERS = 2.0
CREATION_DATE  = 
ORIGINATOR     = 

OBJECT_NAME    = STARLINK-36622
OBJECT_ID      = 2026-022V
CENTER_NAME    = EARTH
REF_FRAME      = TEME
TIME_SYSTEM    = UTC
MEAN_ELEMENT_THEORY = SGP/SGP4

EPOCH          = 2026-02-16T04:00:00.999936
MEAN_MOTION    = 15.77541948
ECCENTRICITY   = .0001236
INCLINATION    = 97.2833
RA_OF_ASC_NODE = 80.1239
ARG_OF_PERICENTER = 76.4545
MEAN_ANOMALY   = 279.1591

EPHEMERIS_TYPE = 0
CLASSIFICATION_TYPE = U
NORAD_CAT_ID   = 67667
ELEMENT_SET_NO = 999
REV_AT_EPOCH   = 343
BSTAR          = -.13049E-1
MEAN_MOTION_DOT = -.1884145E-1
MEAN_MOTION_DDOT = 0

CCSDS_OMM_VERS = 2.0
CREATION_DATE  = 
ORIGINATOR     = 

OBJECT_NAME    = STARLINK-36625
OBJECT_ID      = 2026-022W
CENTER_NAME    = EARTH
REF_FRAME      = TEME
TIME_SYSTEM    = UTC
MEAN_ELEMENT_THEORY = SGP/SGP4

EPOCH          = 2026-02-16T04:00:00.999936
MEAN_MOTION    = 15.77477888
ECCENTRICITY   = .0001439
INCLINATION    = 97.2833
RA_OF_ASC_NODE = 80.1266
ARG_OF_PERICENTER = 62.3587
MEAN_ANOMALY   = 301.3850

EPHEMERIS_TYPE = 0
CLASSIFICATION_TYPE = U
NORAD_CAT_ID   = 67668
ELEMENT_SET_NO = 999
REV_AT_EPOCH   = 343
BSTAR          = -.13184E-1
MEAN_MOTION_DOT = -.1896633E-1
MEAN_MOTION_DDOT = 0

CCSDS_OMM_VERS = 2.0
CREATION_DATE  = 
ORIGINATOR     = 

OBJECT_NAME    = STARLINK-36639
OBJECT_ID      = 2026-022X
CENTER_NAME    = EARTH
REF_FRAME      = TEME
TIME_SYSTEM    = UTC
MEAN_ELEMENT_THEORY = SGP/SGP4

EPOCH          = 2026-02-16T04:00:00.999936
MEAN_MOTION    = 15.77921703
ECCENTRICITY   = .000147
INCLINATION    = 97.2794
RA_OF_ASC_NODE = 80.1297
ARG_OF_PERICENTER = 68.2007
MEAN_ANOMALY   = 304.6643

EPHEMERIS_TYPE = 0
CLASSIFICATION_TYPE = U
NORAD_CAT_ID   = 67669
ELEMENT_SET_NO = 999
REV_AT_EPOCH   = 343
BSTAR          = -.1349E-1
MEAN_MOTION_DOT = -.196838E-1
MEAN_MOTION_DDOT = 0

CCSDS_OMM_VERS = 2.0
CREATION_DATE  = 
ORIGINATOR     = 

OBJECT_NAME    = STARLINK-36596
OBJECT_ID      = 2026-022Y
CENTER_NAME    = EARTH
REF_FRAME      = TEME
TIME_SYSTEM    = UTC
MEAN_ELEMENT_THEORY = SGP/SGP4

EPOCH          = 2026-02-16T04:00:00.999936
MEAN_MOTION    = 15.78609524
ECCENTRICITY   = .000132
INCLINATION    = 97.2812
RA_OF_ASC_NODE = 80.1329
ARG_OF_PERICENTER = 63.1210
MEAN_ANOMALY   = 317.9510

EPHEMERIS_TYPE = 0
CLASSIFICATION_TYPE = U
NORAD_CAT_ID   = 67670
ELEMENT_SET_NO = 999
REV_AT_EPOCH   = 343
BSTAR          = -.13058E-1
MEAN_MOTION_DOT = -.1965792E-1
MEAN_MOTION_DDOT = 0

CCSDS_OMM_VERS = 2.0
CREATION_DATE  = 
ORIGINATOR     = 

OBJECT_NAME    = STARLINK-36297
OBJECT_ID      = 2026-022Z
CENTER_NAME    = EARTH
REF_FRAME      = TEME
TIME_SYSTEM    = UTC
MEAN_ELEMENT_THEORY = SGP/SGP4

EPOCH          = 2026-02-16T04:00:00.999936
MEAN_MOTION    = 15.78776810
ECCENTRICITY   = .0001501
INCLINATION    = 97.2815
RA_OF_ASC_NODE = 80.1376
ARG_OF_PERICENTER = 78.5043
MEAN_ANOMALY   = 314.0697

EPHEMERIS_TYPE = 0
CLASSIFICATION_TYPE = U
NORAD_CAT_ID   = 67671
ELEMENT_SET_NO = 999
REV_AT_EPOCH   = 343
BSTAR          = -.12945E-1
MEAN_MOTION_DOT = -.1963997E-1
MEAN_MOTION_DDOT = 0

CCSDS_OMM_VERS = 2.0
CREATION_DATE  = 
ORIGINATOR     = 

OBJECT_NAME    = STARLINK-36616
OBJECT_ID      = 2026-022AA
CENTER_NAME    = EARTH
REF_FRAME      = TEME
TIME_SYSTEM    = UTC
MEAN_ELEMENT_THEORY = SGP/SGP4

EPOCH          = 2026-02-16T04:00:00.999936
MEAN_MOTION    = 15.78208598
ECCENTRICITY   = .0001357
INCLINATION    = 97.2788
RA_OF_ASC_NODE = 80.1353
ARG_OF_PERICENTER = 67.3268
MEAN_ANOMALY   = 318.8453

EPHEMERIS_TYPE = 0
CLASSIFICATION_TYPE = U
NORAD_CAT_ID   = 67672
ELEMENT_SET_NO = 999
REV_AT_EPOCH   = 343
BSTAR          = -.13327E-1
MEAN_MOTION_DOT = -.1969657E-1
MEAN_MOTION_DDOT = 0

CCSDS_OMM_VERS = 2.0
CREATION_DATE  = 
ORIGINATOR     = 

OBJECT_NAME    = COSMOS 2600
OBJECT_ID      = 2026-023A
CENTER_NAME    = EARTH
REF_FRAME      = TEME
TIME_SYSTEM    = UTC
MEAN_ELEMENT_THEORY = SGP/SGP4

EPOCH          = 2026-02-16T03:48:44.715168
MEAN_MOTION    = 15.82499993
ECCENTRICITY   = .0001609
INCLINATION    = 96.6485
RA_OF_ASC_NODE = 123.4746
ARG_OF_PERICENTER = 58.2792
MEAN_ANOMALY   = 301.8635

EPHEMERIS_TYPE = 0
CLASSIFICATION_TYPE = U
NORAD_CAT_ID   = 67674
ELEMENT_SET_NO = 999
REV_AT_EPOCH   = 164
BSTAR          = .34781E-3
MEAN_MOTION_DOT = .72449E-3
MEAN_MOTION_DDOT = 0

CCSDS_OMM_VERS = 2.0
CREATION_DATE  = 
ORIGINATOR     = 

OBJECT_NAME    = 2026-023B
OBJECT_ID      = 2026-023B
CENTER_NAME    = EARTH
REF_FRAME      = TEME
TIME_SYSTEM    = UTC
MEAN_ELEMENT_THEORY = SGP/SGP4

EPOCH          = 2026-02-15T15:21:13.792608
MEAN_MOTION    = 15.22427648
ECCENTRICITY   = .0017664
INCLINATION    = 96.6405
RA_OF_ASC_NODE = 122.1448
ARG_OF_PERICENTER = 209.2041
MEAN_ANOMALY   = 150.8211

EPHEMERIS_TYPE = 0
CLASSIFICATION_TYPE = U
NORAD_CAT_ID   = 67675
ELEMENT_SET_NO = 999
REV_AT_EPOCH   = 150
BSTAR          = .58895854E-3
MEAN_MOTION_DOT = .13628E-3
MEAN_MOTION_DDOT = 0

CCSDS_OMM_VERS = 2.0
CREATION_DATE  = 
ORIGINATOR     = 

OBJECT_NAME    = 2026-023C
OBJECT_ID      = 2026-023C
CENTER_NAME    = EARTH
REF_FRAME      = TEME
TIME_SYSTEM    = UTC
MEAN_ELEMENT_THEORY = SGP/SGP4

EPOCH          = 2026-02-16T03:57:50.778720
MEAN_MOTION    = 15.22511106
ECCENTRICITY   = .0018943
INCLINATION    = 96.6440
RA_OF_ASC_NODE = 122.6231
ARG_OF_PERICENTER = 196.9299
MEAN_ANOMALY   = 163.1310

EPHEMERIS_TYPE = 0
CLASSIFICATION_TYPE = U
NORAD_CAT_ID   = 67676
ELEMENT_SET_NO = 999
REV_AT_EPOCH   = 174
BSTAR          = .5535E-3
MEAN_MOTION_DOT = .12843E-3
MEAN_MOTION_DDOT = 0

